[{"OBJECT_NAME":"AAC-AIS-SAT1","OBJECT_ID":"2023-001DC","EPOCH":"2026-03-09T23:01:17.922144","MEAN_MOTION":14.91136128,"ECCENTRICITY":0.00085003,"INCLINATION":97.9251,"RA_OF_ASC_NODE":145.2649,"ARG_OF_PERICENTER":240.5114,"MEAN_ANOMALY":119.5257,"EPHEMERIS_TYPE":0,"CLASSIFICATION_TYPE":"U","NORAD_CAT_ID":55107,"ELEMENT_SET_NO":999,"REV_AT_EPOCH":16349,"BSTAR":0.00074274767,"MEAN_MOTION_DOT":7.319e-5,"MEAN_MOTION_DDOT":0},{"OBJECT_NAME":"UNKNOWN","OBJECT_ID":"","EPOCH":"2026-02-26T12:19:36.100992","MEAN_MOTION":14.93459114,"ECCENTRICITY":0.00108231,"INCLINATION":97.8131,"RA_OF_ASC_NODE":148.7516,"ARG_OF_PERICENTER":110.2597,"MEAN_ANOMALY":249.9787,"EPHEMERIS_TYPE":0,"CLASSIFICATION_TYPE":"U","NORAD_CAT_ID":270138,"ELEMENT_SET_NO":999,"REV_AT_EPOCH":33851,"BSTAR":0.00036632015,"MEAN_MOTION_DOT":3.799e-5,"MEAN_MOTION_DDOT":0}]
